CZ-2C R/B               
1 52794U 22058K   25330.47492126  .00026386  00000+0  49202-3 0  9996
2 52794  50.1892 126.4236 0047322 131.2741 229.2317 15.47343705194116
CZ-2C R/B               
1 54039U 22132E   25330.50909534  .00026805  00000+0  41875-3 0  9997
2 54039  97.2950 326.4156 0023988 110.0052 250.3788 15.53438788174312
GSLV R/B                
1 54149U 22138AN  25330.13394853  .00003655  00000+0  32191-3 0  9995
2 54149  87.3842 201.0333 0022188 161.3274 198.8776 14.96005219168440
XRISM                   
1 57800U 23137A   25330.44318924  .00006534  00000+0  38521-3 0  9993
2 57800  31.0012 230.7466 0007592  79.5392 280.6101 15.10120381122167
ACS3                    
1 59588U 24077B   25330.13671896  .00001958  00000+0  17408-2 0  9993
2 59588  97.2886 289.4411 0072244   9.8137 350.4416 13.84373398 79843
