CCSDS_OMM_VERS = 2.0
CREATION_DATE  = 
ORIGINATOR     = 

OBJECT_NAME    = CZ-2C R/B
OBJECT_ID      = 2022-058K
CENTER_NAME    = EARTH
REF_FRAME      = TEME
TIME_SYSTEM    = UTC
MEAN_ELEMENT_THEORY = SGP/SGP4

EPOCH          = 2025-11-26T11:23:53.196864
MEAN_MOTION    = 15.47343705
ECCENTRICITY   = .0047322
INCLINATION    = 50.1892
RA_OF_ASC_NODE = 126.4236
ARG_OF_PERICENTER = 131.2741
MEAN_ANOMALY   = 229.2317

EPHEMERIS_TYPE = 0
CLASSIFICATION_TYPE = U
NORAD_CAT_ID   = 52794
ELEMENT_SET_NO = 999
REV_AT_EPOCH   = 19411
BSTAR          = .49202E-3
MEAN_MOTION_DOT = .26386E-3
MEAN_MOTION_DDOT = 0

CCSDS_OMM_VERS = 2.0
CREATION_DATE  = 
ORIGINATOR     = 

OBJECT_NAME    = CZ-2C R/B
OBJECT_ID      = 2022-132E
CENTER_NAME    = EARTH
REF_FRAME      = TEME
TIME_SYSTEM    = UTC
MEAN_ELEMENT_THEORY = SGP/SGP4

EPOCH          = 2025-11-26T12:13:05.837376
MEAN_MOTION    = 15.53438788
ECCENTRICITY   = .0023988
INCLINATION    = 97.2950
RA_OF_ASC_NODE = 326.4156
ARG_OF_PERICENTER = 110.0052
MEAN_ANOMALY   = 250.3788

EPHEMERIS_TYPE = 0
CLASSIFICATION_TYPE = U
NORAD_CAT_ID   = 54039
ELEMENT_SET_NO = 999
REV_AT_EPOCH   = 17431
BSTAR          = .41875E-3
MEAN_MOTION_DOT = .26805E-3
MEAN_MOTION_DDOT = 0

CCSDS_OMM_VERS = 2.0
CREATION_DATE  = 
ORIGINATOR     = 

OBJECT_NAME    = GSLV R/B
OBJECT_ID      = 2022-138AN
CENTER_NAME    = EARTH
REF_FRAME      = TEME
TIME_SYSTEM    = UTC
MEAN_ELEMENT_THEORY = SGP/SGP4

EPOCH          = 2025-11-26T03:12:53.152992
MEAN_MOTION    = 14.96005219
ECCENTRICITY   = .00221883
INCLINATION    = 87.3842
RA_OF_ASC_NODE = 201.0333
ARG_OF_PERICENTER = 161.3274
MEAN_ANOMALY   = 198.8776

EPHEMERIS_TYPE = 0
CLASSIFICATION_TYPE = U
NORAD_CAT_ID   = 54149
ELEMENT_SET_NO = 999
REV_AT_EPOCH   = 16844
BSTAR          = .32190999E-3
MEAN_MOTION_DOT = .3655E-4
MEAN_MOTION_DDOT = 0

CCSDS_OMM_VERS = 2.0
CREATION_DATE  = 
ORIGINATOR     = 

OBJECT_NAME    = XRISM
OBJECT_ID      = 2023-137A
CENTER_NAME    = EARTH
REF_FRAME      = TEME
TIME_SYSTEM    = UTC
MEAN_ELEMENT_THEORY = SGP/SGP4

EPOCH          = 2025-11-26T10:38:11.550336
MEAN_MOTION    = 15.10120381
ECCENTRICITY   = .0007592
INCLINATION    = 31.0012
RA_OF_ASC_NODE = 230.7466
ARG_OF_PERICENTER = 79.5392
MEAN_ANOMALY   = 280.6101

EPHEMERIS_TYPE = 0
CLASSIFICATION_TYPE = U
NORAD_CAT_ID   = 57800
ELEMENT_SET_NO = 999
REV_AT_EPOCH   = 12216
BSTAR          = .38521E-3
MEAN_MOTION_DOT = .6534E-4
MEAN_MOTION_DDOT = 0

CCSDS_OMM_VERS = 2.0
CREATION_DATE  = 
ORIGINATOR     = 

OBJECT_NAME    = ACS3
OBJECT_ID      = 2024-077B
CENTER_NAME    = EARTH
REF_FRAME      = TEME
TIME_SYSTEM    = UTC
MEAN_ELEMENT_THEORY = SGP/SGP4

EPOCH          = 2025-11-26T03:16:52.518144
MEAN_MOTION    = 13.84373398
ECCENTRICITY   = .00722442
INCLINATION    = 97.2886
RA_OF_ASC_NODE = 289.4411
ARG_OF_PERICENTER = 9.8137
MEAN_ANOMALY   = 350.4416

EPHEMERIS_TYPE = 0
CLASSIFICATION_TYPE = U
NORAD_CAT_ID   = 59588
ELEMENT_SET_NO = 999
REV_AT_EPOCH   = 7984
BSTAR          = .17407672E-2
MEAN_MOTION_DOT = .1958E-4
MEAN_MOTION_DDOT = 0

